KUIPER-00079            
1 64826U 25151L   25211.51781075  .00013662  00000+0  39559-3 0  9996
2 64826  51.8774 218.8766 0005910 181.8585 178.2380 15.35858386  3384
KUIPER-00080            
1 64827U 25151M   25211.84586283  .00040732  00000+0  11633-2 0  9997
2 64827  51.8777 217.3270 0005012 192.7492 167.3368 15.35603569  2232
KUIPER-00082            
1 64828U 25151N   25211.51946781  .00022698  00000+0  65302-3 0  9999
2 64828  51.8771 218.8855 0005244 187.2684 172.8227 15.35679135  2182
KUIPER-00083            
1 64829U 25151P   25211.84823075  .00017719  00000+0  51939-3 0  9995
2 64829  51.8772 217.3354 0005164 194.2753 165.8088 15.35259984  3429
KUIPER-00084            
1 64830U 25151Q   25211.58335648  .00018156  00000+0  58371-3 0  9995
2 64830  51.8783 218.6552 0006161 204.5509 108.9434 15.32299377  1911
KUIPER-00085            
1 64831U 25151R   25211.51809622  .00024340  00000+0  69591-3 0  9995
2 64831  51.8772 218.8784 0005746 182.9572 177.1381 15.35830524  2183
KUIPER-00086            
1 64832U 25151S   25211.52410600  .00022864  00000+0  66958-3 0  9994
2 64832  51.8771 218.9156 0005347 206.8981 153.1728 15.35116424  2189
KUIPER-00087            
1 64833U 25151T   25211.52001677  .00023847  00000+0  68834-3 0  9992
2 64833  51.8775 218.8931 0005263 183.9706 176.1239 15.35546239  2184
