<?xml version="1.0" encoding="UTF-8"?>
<ndm xmlns:xsi="http://www.w3.org/2001/XMLSchema-instance" xsi:noNamespaceSchemaLocation="https://sanaregistry.org/r/ndmxml_unqualified/ndmxml-2.0.0-master-2.0.xsd">
<omm id="CCSDS_OMM_VERS" version="2.0">
<header><CREATION_DATE/><ORIGINATOR/></header><body><segment><metadata><OBJECT_NAME>KUIPER-00079</OBJECT_NAME><OBJECT_ID>2025-151L</OBJECT_ID><CENTER_NAME>EARTH</CENTER_NAME><REF_FRAME>TEME</REF_FRAME><TIME_SYSTEM>UTC</TIME_SYSTEM><MEAN_ELEMENT_THEORY>SGP4</MEAN_ELEMENT_THEORY></metadata><data><meanElements><EPOCH>2025-07-30T12:25:38.848800</EPOCH><MEAN_MOTION>15.35858386</MEAN_MOTION><ECCENTRICITY>.000591</ECCENTRICITY><INCLINATION>51.8774</INCLINATION><RA_OF_ASC_NODE>218.8766</RA_OF_ASC_NODE><ARG_OF_PERICENTER>181.8585</ARG_OF_PERICENTER><MEAN_ANOMALY>178.2380</MEAN_ANOMALY></meanElements><tleParameters><EPHEMERIS_TYPE>0</EPHEMERIS_TYPE><CLASSIFICATION_TYPE>U</CLASSIFICATION_TYPE><NORAD_CAT_ID>64826</NORAD_CAT_ID><ELEMENT_SET_NO>999</ELEMENT_SET_NO><REV_AT_EPOCH>338</REV_AT_EPOCH><BSTAR>.39559E-3</BSTAR><MEAN_MOTION_DOT>.13662E-3</MEAN_MOTION_DOT><MEAN_MOTION_DDOT>0</MEAN_MOTION_DDOT></tleParameters></data></segment></body></omm>
<omm id="CCSDS_OMM_VERS" version="2.0">
<header><CREATION_DATE/><ORIGINATOR/></header><body><segment><metadata><OBJECT_NAME>KUIPER-00080</OBJECT_NAME><OBJECT_ID>2025-151M</OBJECT_ID><CENTER_NAME>EARTH</CENTER_NAME><REF_FRAME>TEME</REF_FRAME><TIME_SYSTEM>UTC</TIME_SYSTEM><MEAN_ELEMENT_THEORY>SGP4</MEAN_ELEMENT_THEORY></metadata><data><meanElements><EPOCH>2025-07-30T20:18:02.548512</EPOCH><MEAN_MOTION>15.35603569</MEAN_MOTION><ECCENTRICITY>.0005012</ECCENTRICITY><INCLINATION>51.8777</INCLINATION><RA_OF_ASC_NODE>217.3270</RA_OF_ASC_NODE><ARG_OF_PERICENTER>192.7492</ARG_OF_PERICENTER><MEAN_ANOMALY>167.3368</MEAN_ANOMALY></meanElements><tleParameters><EPHEMERIS_TYPE>0</EPHEMERIS_TYPE><CLASSIFICATION_TYPE>U</CLASSIFICATION_TYPE><NORAD_CAT_ID>64827</NORAD_CAT_ID><ELEMENT_SET_NO>999</ELEMENT_SET_NO><REV_AT_EPOCH>223</REV_AT_EPOCH><BSTAR>.11633E-2</BSTAR><MEAN_MOTION_DOT>.40732E-3</MEAN_MOTION_DOT><MEAN_MOTION_DDOT>0</MEAN_MOTION_DDOT></tleParameters></data></segment></body></omm>
<omm id="CCSDS_OMM_VERS" version="2.0">
<header><CREATION_DATE/><ORIGINATOR/></header><body><segment><metadata><OBJECT_NAME>KUIPER-00082</OBJECT_NAME><OBJECT_ID>2025-151N</OBJECT_ID><CENTER_NAME>EARTH</CENTER_NAME><REF_FRAME>TEME</REF_FRAME><TIME_SYSTEM>UTC</TIME_SYSTEM><MEAN_ELEMENT_THEORY>SGP4</MEAN_ELEMENT_THEORY></metadata><data><meanElements><EPOCH>2025-07-30T12:28:02.018784</EPOCH><MEAN_MOTION>15.35679135</MEAN_MOTION><ECCENTRICITY>.0005244</ECCENTRICITY><INCLINATION>51.8771</INCLINATION><RA_OF_ASC_NODE>218.8855</RA_OF_ASC_NODE><ARG_OF_PERICENTER>187.2684</ARG_OF_PERICENTER><MEAN_ANOMALY>172.8227</MEAN_ANOMALY></meanElements><tleParameters><EPHEMERIS_TYPE>0</EPHEMERIS_TYPE><CLASSIFICATION_TYPE>U</CLASSIFICATION_TYPE><NORAD_CAT_ID>64828</NORAD_CAT_ID><ELEMENT_SET_NO>999</ELEMENT_SET_NO><REV_AT_EPOCH>218</REV_AT_EPOCH><BSTAR>.65302E-3</BSTAR><MEAN_MOTION_DOT>.22698E-3</MEAN_MOTION_DOT><MEAN_MOTION_DDOT>0</MEAN_MOTION_DDOT></tleParameters></data></segment></body></omm>
<omm id="CCSDS_OMM_VERS" version="2.0">
<header><CREATION_DATE/><ORIGINATOR/></header><body><segment><metadata><OBJECT_NAME>KUIPER-00083</OBJECT_NAME><OBJECT_ID>2025-151P</OBJECT_ID><CENTER_NAME>EARTH</CENTER_NAME><REF_FRAME>TEME</REF_FRAME><TIME_SYSTEM>UTC</TIME_SYSTEM><MEAN_ELEMENT_THEORY>SGP4</MEAN_ELEMENT_THEORY></metadata><data><meanElements><EPOCH>2025-07-30T20:21:27.136800</EPOCH><MEAN_MOTION>15.35259984</MEAN_MOTION><ECCENTRICITY>.0005164</ECCENTRICITY><INCLINATION>51.8772</INCLINATION><RA_OF_ASC_NODE>217.3354</RA_OF_ASC_NODE><ARG_OF_PERICENTER>194.2753</ARG_OF_PERICENTER><MEAN_ANOMALY>165.8088</MEAN_ANOMALY></meanElements><tleParameters><EPHEMERIS_TYPE>0</EPHEMERIS_TYPE><CLASSIFICATION_TYPE>U</CLASSIFICATION_TYPE><NORAD_CAT_ID>64829</NORAD_CAT_ID><ELEMENT_SET_NO>999</ELEMENT_SET_NO><REV_AT_EPOCH>342</REV_AT_EPOCH><BSTAR>.51939E-3</BSTAR><MEAN_MOTION_DOT>.17719E-3</MEAN_MOTION_DOT><MEAN_MOTION_DDOT>0</MEAN_MOTION_DDOT></tleParameters></data></segment></body></omm>
<omm id="CCSDS_OMM_VERS" version="2.0">
<header><CREATION_DATE/><ORIGINATOR/></header><body><segment><metadata><OBJECT_NAME>KUIPER-00084</OBJECT_NAME><OBJECT_ID>2025-151Q</OBJECT_ID><CENTER_NAME>EARTH</CENTER_NAME><REF_FRAME>TEME</REF_FRAME><TIME_SYSTEM>UTC</TIME_SYSTEM><MEAN_ELEMENT_THEORY>SGP4</MEAN_ELEMENT_THEORY></metadata><data><meanElements><EPOCH>2025-07-30T14:00:01.999872</EPOCH><MEAN_MOTION>15.32299377</MEAN_MOTION><ECCENTRICITY>.0006161</ECCENTRICITY><INCLINATION>51.8783</INCLINATION><RA_OF_ASC_NODE>218.6552</RA_OF_ASC_NODE><ARG_OF_PERICENTER>204.5509</ARG_OF_PERICENTER><MEAN_ANOMALY>108.9434</MEAN_ANOMALY></meanElements><tleParameters><EPHEMERIS_TYPE>0</EPHEMERIS_TYPE><CLASSIFICATION_TYPE>U</CLASSIFICATION_TYPE><NORAD_CAT_ID>64830</NORAD_CAT_ID><ELEMENT_SET_NO>999</ELEMENT_SET_NO><REV_AT_EPOCH>191</REV_AT_EPOCH><BSTAR>.58371E-3</BSTAR><MEAN_MOTION_DOT>.18156E-3</MEAN_MOTION_DOT><MEAN_MOTION_DDOT>0</MEAN_MOTION_DDOT></tleParameters></data></segment></body></omm>
<omm id="CCSDS_OMM_VERS" version="2.0">
<header><CREATION_DATE/><ORIGINATOR/></header><body><segment><metadata><OBJECT_NAME>KUIPER-00085</OBJECT_NAME><OBJECT_ID>2025-151R</OBJECT_ID><CENTER_NAME>EARTH</CENTER_NAME><REF_FRAME>TEME</REF_FRAME><TIME_SYSTEM>UTC</TIME_SYSTEM><MEAN_ELEMENT_THEORY>SGP4</MEAN_ELEMENT_THEORY></metadata><data><meanElements><EPOCH>2025-07-30T12:26:03.513408</EPOCH><MEAN_MOTION>15.35830524</MEAN_MOTION><ECCENTRICITY>.0005746</ECCENTRICITY><INCLINATION>51.8772</INCLINATION><RA_OF_ASC_NODE>218.8784</RA_OF_ASC_NODE><ARG_OF_PERICENTER>182.9572</ARG_OF_PERICENTER><MEAN_ANOMALY>177.1381</MEAN_ANOMALY></meanElements><tleParameters><EPHEMERIS_TYPE>0</EPHEMERIS_TYPE><CLASSIFICATION_TYPE>U</CLASSIFICATION_TYPE><NORAD_CAT_ID>64831</NORAD_CAT_ID><ELEMENT_SET_NO>999</ELEMENT_SET_NO><REV_AT_EPOCH>218</REV_AT_EPOCH><BSTAR>.69591E-3</BSTAR><MEAN_MOTION_DOT>.2434E-3</MEAN_MOTION_DOT><MEAN_MOTION_DDOT>0</MEAN_MOTION_DDOT></tleParameters></data></segment></body></omm>
<omm id="CCSDS_OMM_VERS" version="2.0">
<header><CREATION_DATE/><ORIGINATOR/></header><body><segment><metadata><OBJECT_NAME>KUIPER-00086</OBJECT_NAME><OBJECT_ID>2025-151S</OBJECT_ID><CENTER_NAME>EARTH</CENTER_NAME><REF_FRAME>TEME</REF_FRAME><TIME_SYSTEM>UTC</TIME_SYSTEM><MEAN_ELEMENT_THEORY>SGP4</MEAN_ELEMENT_THEORY></metadata><data><meanElements><EPOCH>2025-07-30T12:34:42.758400</EPOCH><MEAN_MOTION>15.35116424</MEAN_MOTION><ECCENTRICITY>.0005347</ECCENTRICITY><INCLINATION>51.8771</INCLINATION><RA_OF_ASC_NODE>218.9156</RA_OF_ASC_NODE><ARG_OF_PERICENTER>206.8981</ARG_OF_PERICENTER><MEAN_ANOMALY>153.1728</MEAN_ANOMALY></meanElements><tleParameters><EPHEMERIS_TYPE>0</EPHEMERIS_TYPE><CLASSIFICATION_TYPE>U</CLASSIFICATION_TYPE><NORAD_CAT_ID>64832</NORAD_CAT_ID><ELEMENT_SET_NO>999</ELEMENT_SET_NO><REV_AT_EPOCH>218</REV_AT_EPOCH><BSTAR>.66958E-3</BSTAR><MEAN_MOTION_DOT>.22864E-3</MEAN_MOTION_DOT><MEAN_MOTION_DDOT>0</MEAN_MOTION_DDOT></tleParameters></data></segment></body></omm>
<omm id="CCSDS_OMM_VERS" version="2.0">
<header><CREATION_DATE/><ORIGINATOR/></header><body><segment><metadata><OBJECT_NAME>KUIPER-00087</OBJECT_NAME><OBJECT_ID>2025-151T</OBJECT_ID><CENTER_NAME>EARTH</CENTER_NAME><REF_FRAME>TEME</REF_FRAME><TIME_SYSTEM>UTC</TIME_SYSTEM><MEAN_ELEMENT_THEORY>SGP4</MEAN_ELEMENT_THEORY></metadata><data><meanElements><EPOCH>2025-07-30T12:28:49.448928</EPOCH><MEAN_MOTION>15.35546239</MEAN_MOTION><ECCENTRICITY>.0005263</ECCENTRICITY><INCLINATION>51.8775</INCLINATION><RA_OF_ASC_NODE>218.8931</RA_OF_ASC_NODE><ARG_OF_PERICENTER>183.9706</ARG_OF_PERICENTER><MEAN_ANOMALY>176.1239</MEAN_ANOMALY></meanElements><tleParameters><EPHEMERIS_TYPE>0</EPHEMERIS_TYPE><CLASSIFICATION_TYPE>U</CLASSIFICATION_TYPE><NORAD_CAT_ID>64833</NORAD_CAT_ID><ELEMENT_SET_NO>999</ELEMENT_SET_NO><REV_AT_EPOCH>218</REV_AT_EPOCH><BSTAR>.68834E-3</BSTAR><MEAN_MOTION_DOT>.23847E-3</MEAN_MOTION_DOT><MEAN_MOTION_DDOT>0</MEAN_MOTION_DDOT></tleParameters></data></segment></body></omm>

</ndm>
